GPS BIIR-2  (PRN 13)    
1 24876U 97035A   26062.00416581  .00000024  00000+0  00000+0 0  9996
2 24876  55.9346 102.7259 0097907  56.2756 304.7352  2.00563944209828
GPS BIIR-5  (PRN 22)    
1 26407U 00040A   26062.09329328 -.00000006  00000+0  00000+0 0  9990
2 26407  54.8758 219.3737 0122735 302.5262  55.9765  2.00568878187816
GPS BIIR-8  (PRN 16)    
1 27663U 03005A   26061.66100637 -.00000005  00000+0  00000+0 0  9990
2 27663  54.9077 219.1988 0148733  52.7044 129.5810  2.00566327169175
GPS BIIR-11 (PRN 19)    
1 28190U 04009A   26061.95050060 -.00000010  00000+0  00000+0 0  9993
2 28190  54.9168 279.9786 0110897 169.0266  18.2442  2.00558110160818
GPS BIIR-13 (PRN 02)    
1 28474U 04045A   26061.09234127 -.00000089  00000+0  00000+0 0  9997
2 28474  55.1960 329.2124 0170883 312.7311  38.2097  2.00573214156275
GPS BIIRM-1 (PRN 17)    
1 28874U 05038A   26061.34676233 -.00000001  00000+0  00000+0 0  9994
2 28874  54.9646 277.4881 0128856 295.3112 199.7188  2.00573091149694
GPS BIIRM-2 (PRN 31)    
1 29486U 06042A   26061.88514677 -.00000009  00000+0  00000+0 0  9990
2 29486  54.6983 155.5604 0106760  52.8721   7.8976  2.00575380142269
GPS BIIRM-3 (PRN 12)    
1 29601U 06052A   26061.71797006 -.00000006  00000+0  00000+0 0  9998
2 29601  54.9578 218.2238 0087895  89.3335 271.6249  2.00551488141271
GPS BIIRM-4 (PRN 15)    
1 32260U 07047A   26062.02486862  .00000007  00000+0  00000+0 0  9998
2 32260  54.0146  84.4404 0163592  85.9452 275.9877  2.00560768134689
GPS BIIRM-5 (PRN 29)    
1 32384U 07062A   26062.08783465 -.00000009  00000+0  00000+0 0  9990
2 32384  55.1158 278.4165 0032895 160.6467  12.9294  2.00553422133385
GPS BIIRM-6 (PRN 07)    
1 32711U 08012A   26061.94317565 -.00000007  00000+0  00000+0 0  9996
2 32711  54.4823 154.1705 0206885 246.1613 111.6809  2.00569103131622
GPS BIIRM-8 (PRN 05)    
1 35752U 09043A   26061.93437243 -.00000080  00000+0  00000+0 0  9995
2 35752  56.1473  31.6254 0051678  80.7067 288.9029  2.00560482121230
GPS BIIF-1  (PRN 25)    
1 36585U 10022A   26061.75914808 -.00000011  00000+0  00000+0 0  9990
2 36585  54.2892 212.8472 0127354  65.8685 294.0033  2.00557144115450
GPS BIIF-3  (PRN 24)    
1 38833U 12053A   26060.62550247 -.00000018  00000+0  00000+0 0  9999
2 38833  53.5656 148.0073 0176910  64.7623 297.0865  2.00565726 97288
GPS BIIF-4  (PRN 27)    
1 39166U 13023A   26060.98893270  .00000006  00000+0  00000+0 0  9998
2 39166  54.5878 273.3391 0141552  49.8819 311.3944  2.00564153 93732
GPS BIIF-5  (PRN 30)    
1 39533U 14008A   26061.48588350 -.00000013  00000+0  00000+0 0  9995
2 39533  53.6376 153.6733 0082226 228.2234 131.0919  2.00552925 87544
GPS BIIF-6  (PRN 06)    
1 39741U 14026A   26061.76411200 -.00000096  00000+0  00000+0 0  9997
2 39741  56.5473 335.6635 0039889 324.4172  35.3477  2.00568745 86401
